CCSDS_OMM_VERS = 2.0
CREATION_DATE  = 
ORIGINATOR     = 

OBJECT_NAME    = ALOS (DAICHI)
OBJECT_ID      = 2006-002A
CENTER_NAME    = EARTH
REF_FRAME      = TEME
TIME_SYSTEM    = UTC
MEAN_ELEMENT_THEORY = SGP/SGP4

EPOCH          = 2026-02-21T10:28:30.611424
MEAN_MOTION    = 14.69751555
ECCENTRICITY   = .00015823
INCLINATION    = 98.1192
RA_OF_ASC_NODE = 8.4772
ARG_OF_PERICENTER = 55.3795
MEAN_ANOMALY   = 304.7560

EPHEMERIS_TYPE = 0
CLASSIFICATION_TYPE = U
NORAD_CAT_ID   = 28931
ELEMENT_SET_NO = 999
REV_AT_EPOCH   = 7109
BSTAR          = .23253127E-3
MEAN_MOTION_DOT = .1337E-4
MEAN_MOTION_DDOT = 0

CCSDS_OMM_VERS = 2.0
CREATION_DATE  = 
ORIGINATOR     = 

OBJECT_NAME    = H-2A R/B
OBJECT_ID      = 2006-002B
CENTER_NAME    = EARTH
REF_FRAME      = TEME
TIME_SYSTEM    = UTC
MEAN_ELEMENT_THEORY = SGP/SGP4

EPOCH          = 2026-02-21T07:24:13.629312
MEAN_MOTION    = 15.16048804
ECCENTRICITY   = .005214
INCLINATION    = 98.2384
RA_OF_ASC_NODE = 197.9321
ARG_OF_PERICENTER = 297.6453
MEAN_ANOMALY   = 61.9491

EPHEMERIS_TYPE = 0
CLASSIFICATION_TYPE = U
NORAD_CAT_ID   = 28932
ELEMENT_SET_NO = 999
REV_AT_EPOCH   = 9195
BSTAR          = .41821E-3
MEAN_MOTION_DOT = .8247E-4
MEAN_MOTION_DDOT = 0

CCSDS_OMM_VERS = 2.0
CREATION_DATE  = 
ORIGINATOR     = 

OBJECT_NAME    = RESURS-DK 1
OBJECT_ID      = 2006-021A
CENTER_NAME    = EARTH
REF_FRAME      = TEME
TIME_SYSTEM    = UTC
MEAN_ELEMENT_THEORY = SGP/SGP4

EPOCH          = 2026-02-21T08:01:37.530624
MEAN_MOTION    = 15.12637325
ECCENTRICITY   = .00030992
INCLINATION    = 69.9316
RA_OF_ASC_NODE = 279.3304
ARG_OF_PERICENTER = 179.8100
MEAN_ANOMALY   = 180.3067

EPHEMERIS_TYPE = 0
CLASSIFICATION_TYPE = U
NORAD_CAT_ID   = 29228
ELEMENT_SET_NO = 999
REV_AT_EPOCH   = 8505
BSTAR          = .11382748E-3
MEAN_MOTION_DOT = .1886E-4
MEAN_MOTION_DDOT = 0

CCSDS_OMM_VERS = 2.0
CREATION_DATE  = 
ORIGINATOR     = 

OBJECT_NAME    = CZ-4B R/B
OBJECT_ID      = 2006-046C
CENTER_NAME    = EARTH
REF_FRAME      = TEME
TIME_SYSTEM    = UTC
MEAN_ELEMENT_THEORY = SGP/SGP4

EPOCH          = 2026-02-21T02:48:08.142624
MEAN_MOTION    = 15.16714178
ECCENTRICITY   = .00323378
INCLINATION    = 97.5627
RA_OF_ASC_NODE = 97.0693
ARG_OF_PERICENTER = 327.2714
MEAN_ANOMALY   = 32.6515

EPHEMERIS_TYPE = 0
CLASSIFICATION_TYPE = U
NORAD_CAT_ID   = 29507
ELEMENT_SET_NO = 999
REV_AT_EPOCH   = 5753
BSTAR          = .22568719E-3
MEAN_MOTION_DOT = .4411E-4
MEAN_MOTION_DDOT = 0

CCSDS_OMM_VERS = 2.0
CREATION_DATE  = 
ORIGINATOR     = 

OBJECT_NAME    = CZ-2C R/B
OBJECT_ID      = 2007-010B
CENTER_NAME    = EARTH
REF_FRAME      = TEME
TIME_SYSTEM    = UTC
MEAN_ELEMENT_THEORY = SGP/SGP4

EPOCH          = 2026-02-21T07:27:49.673376
MEAN_MOTION    = 14.20239962
ECCENTRICITY   = .0058512
INCLINATION    = 98.3973
RA_OF_ASC_NODE = 166.4118
ARG_OF_PERICENTER = 342.9030
MEAN_ANOMALY   = 17.0175

EPHEMERIS_TYPE = 0
CLASSIFICATION_TYPE = U
NORAD_CAT_ID   = 31114
ELEMENT_SET_NO = 999
REV_AT_EPOCH   = 97739
BSTAR          = .67566E-4
MEAN_MOTION_DOT = .106E-5
MEAN_MOTION_DDOT = 0

CCSDS_OMM_VERS = 2.0
CREATION_DATE  = 
ORIGINATOR     = 

OBJECT_NAME    = COSMO-SKYMED 1
OBJECT_ID      = 2007-023A
CENTER_NAME    = EARTH
REF_FRAME      = TEME
TIME_SYSTEM    = UTC
MEAN_ELEMENT_THEORY = SGP/SGP4

EPOCH          = 2026-02-21T14:48:07.695936
MEAN_MOTION    = 14.96401775
ECCENTRICITY   = .00014722
INCLINATION    = 97.8873
RA_OF_ASC_NODE = 243.5212
ARG_OF_PERICENTER = 88.1409
MEAN_ANOMALY   = 271.9980

EPHEMERIS_TYPE = 0
CLASSIFICATION_TYPE = U
NORAD_CAT_ID   = 31598
ELEMENT_SET_NO = 999
REV_AT_EPOCH   = 1250
BSTAR          = .29963246E-3
MEAN_MOTION_DOT = .3336E-4
MEAN_MOTION_DDOT = 0

CCSDS_OMM_VERS = 2.0
CREATION_DATE  = 
ORIGINATOR     = 

OBJECT_NAME    = COSMOS 2428
OBJECT_ID      = 2007-029A
CENTER_NAME    = EARTH
REF_FRAME      = TEME
TIME_SYSTEM    = UTC
MEAN_ELEMENT_THEORY = SGP/SGP4

EPOCH          = 2026-02-21T14:32:22.271712
MEAN_MOTION    = 14.12940648
ECCENTRICITY   = .00081485
INCLINATION    = 70.9400
RA_OF_ASC_NODE = 237.1041
ARG_OF_PERICENTER = 294.4834
MEAN_ANOMALY   = 65.5437

EPHEMERIS_TYPE = 0
CLASSIFICATION_TYPE = U
NORAD_CAT_ID   = 31792
ELEMENT_SET_NO = 999
REV_AT_EPOCH   = 96182
BSTAR          = .12325964E-3
MEAN_MOTION_DOT = .182E-5
MEAN_MOTION_DDOT = 0

CCSDS_OMM_VERS = 2.0
CREATION_DATE  = 
ORIGINATOR     = 

OBJECT_NAME    = SL-16 R/B
OBJECT_ID      = 2007-029B
CENTER_NAME    = EARTH
REF_FRAME      = TEME
TIME_SYSTEM    = UTC
MEAN_ELEMENT_THEORY = SGP/SGP4

EPOCH          = 2026-02-21T12:22:54.267168
MEAN_MOTION    = 14.14836631
ECCENTRICITY   = .00024373
INCLINATION    = 70.9750
RA_OF_ASC_NODE = 206.3806
ARG_OF_PERICENTER = 282.3911
MEAN_ANOMALY   = 145.2410

EPHEMERIS_TYPE = 0
CLASSIFICATION_TYPE = U
NORAD_CAT_ID   = 31793
ELEMENT_SET_NO = 999
REV_AT_EPOCH   = 96308
BSTAR          = -.24606024E-4
MEAN_MOTION_DOT = -.95E-6
MEAN_MOTION_DDOT = 0

CCSDS_OMM_VERS = 2.0
CREATION_DATE  = 
ORIGINATOR     = 

OBJECT_NAME    = KORONAS-FOTON
OBJECT_ID      = 2009-003A
CENTER_NAME    = EARTH
REF_FRAME      = TEME
TIME_SYSTEM    = UTC
MEAN_ELEMENT_THEORY = SGP/SGP4

EPOCH          = 2026-02-21T14:49:07.502880
MEAN_MOTION    = 15.42879382
ECCENTRICITY   = .00097578
INCLINATION    = 82.4296
RA_OF_ASC_NODE = 292.5829
ARG_OF_PERICENTER = 207.2397
MEAN_ANOMALY   = 152.8340

EPHEMERIS_TYPE = 0
CLASSIFICATION_TYPE = U
NORAD_CAT_ID   = 33504
ELEMENT_SET_NO = 999
REV_AT_EPOCH   = 94326
BSTAR          = .26720605E-3
MEAN_MOTION_DOT = .11784E-3
MEAN_MOTION_DDOT = 0

CCSDS_OMM_VERS = 2.0
CREATION_DATE  = 
ORIGINATOR     = 

OBJECT_NAME    = CZ-2C R/B
OBJECT_ID      = 2011-030B
CENTER_NAME    = EARTH
REF_FRAME      = TEME
TIME_SYSTEM    = UTC
MEAN_ELEMENT_THEORY = SGP/SGP4

EPOCH          = 2026-02-21T11:25:49.842048
MEAN_MOTION    = 14.81151805
ECCENTRICITY   = .00538383
INCLINATION    = 97.8518
RA_OF_ASC_NODE = 10.0683
ARG_OF_PERICENTER = 44.2233
MEAN_ANOMALY   = 69.8588

EPHEMERIS_TYPE = 0
CLASSIFICATION_TYPE = U
NORAD_CAT_ID   = 37731
ELEMENT_SET_NO = 999
REV_AT_EPOCH   = 78769
BSTAR          = .19756886E-3
MEAN_MOTION_DOT = .152E-4
MEAN_MOTION_DDOT = 0

CCSDS_OMM_VERS = 2.0
CREATION_DATE  = 
ORIGINATOR     = 

OBJECT_NAME    = H-2A R/B
OBJECT_ID      = 2012-025E
CENTER_NAME    = EARTH
REF_FRAME      = TEME
TIME_SYSTEM    = UTC
MEAN_ELEMENT_THEORY = SGP/SGP4

EPOCH          = 2026-02-21T09:33:59.838336
MEAN_MOTION    = 14.95015683
ECCENTRICITY   = .00450513
INCLINATION    = 98.4714
RA_OF_ASC_NODE = 18.1473
ARG_OF_PERICENTER = 8.2491
MEAN_ANOMALY   = 351.9458

EPHEMERIS_TYPE = 0
CLASSIFICATION_TYPE = U
NORAD_CAT_ID   = 38341
ELEMENT_SET_NO = 999
REV_AT_EPOCH   = 74578
BSTAR          = .31566948E-3
MEAN_MOTION_DOT = .3453E-4
MEAN_MOTION_DDOT = 0

CCSDS_OMM_VERS = 2.0
CREATION_DATE  = 
ORIGINATOR     = 

OBJECT_NAME    = SHIJIAN-16 (SJ-16)
OBJECT_ID      = 2013-057A
CENTER_NAME    = EARTH
REF_FRAME      = TEME
TIME_SYSTEM    = UTC
MEAN_ELEMENT_THEORY = SGP/SGP4

EPOCH          = 2026-02-21T14:33:01.180224
MEAN_MOTION    = 14.92270765
ECCENTRICITY   = .0016181
INCLINATION    = 74.9709
RA_OF_ASC_NODE = 215.5326
ARG_OF_PERICENTER = 153.3958
MEAN_ANOMALY   = 206.8064

EPHEMERIS_TYPE = 0
CLASSIFICATION_TYPE = U
NORAD_CAT_ID   = 39358
ELEMENT_SET_NO = 999
REV_AT_EPOCH   = 66910
BSTAR          = .11856741E-3
MEAN_MOTION_DOT = .1184E-4
MEAN_MOTION_DDOT = 0

