ALOS (DAICHI)           
1 28931U 06002A   26052.43646541  .00001337  00000+0  23253-3 0  9990
2 28931  98.1192   8.4772 0001582  55.3795 304.7560 14.69751555 71093
H-2A R/B                
1 28932U 06002B   26052.30849108  .00008247  00000+0  41821-3 0  9999
2 28932  98.2384 197.9321 0052140 297.6453  61.9491 15.16048804 91951
RESURS-DK 1             
1 29228U 06021A   26052.33446216  .00001886  00000+0  11383-3 0  9997
2 29228  69.9316 279.3304 0003099 179.8100 180.3067 15.12637325 85052
CZ-4B R/B               
1 29507U 06046C   26052.11676091  .00004411  00000+0  22569-3 0  9991
2 29507  97.5627  97.0693 0032337 327.2714  32.6515 15.16714178 57532
CZ-2C R/B               
1 31114U 07010B   26052.31099159  .00000106  00000+0  67566-4 0  9990
2 31114  98.3973 166.4118 0058512 342.9030  17.0175 14.20239962977394
COSMO-SKYMED 1          
1 31598U 07023A   26052.61675574  .00003336  00000+0  29963-3 0  9990
2 31598  97.8873 243.5212 0001472  88.1409 271.9980 14.96401775 12501
COSMOS 2428             
1 31792U 07029A   26052.60581333  .00000182  00000+0  12326-3 0  9991
2 31792  70.9400 237.1041 0008148 294.4834  65.5437 14.12940648961822
SL-16 R/B               
1 31793U 07029B   26052.51590587 -.00000095  00000+0 -24606-4 0  9993
2 31793  70.9750 206.3806 0002437 282.3911 145.2410 14.14836631963080
KORONAS-FOTON           
1 33504U 09003A   26052.61744795  .00011784  00000+0  26721-3 0  9996
2 33504  82.4296 292.5829 0009757 207.2397 152.8340 15.42879382943269
CZ-2C R/B               
1 37731U 11030B   26052.47627132  .00001520  00000+0  19757-3 0  9992
2 37731  97.8518  10.0683 0053838  44.2233  69.8588 14.81151805787699
H-2A R/B                
1 38341U 12025E   26052.39860924  .00003453  00000+0  31567-3 0  9994
2 38341  98.4714  18.1473 0045051   8.2491 351.9458 14.95015683745785
SHIJIAN-16 (SJ-16)      
1 39358U 13057A   26052.60626366  .00001184  00000+0  11857-3 0  9992
2 39358  74.9709 215.5326 0016181 153.3958 206.8064 14.92270765669102
